{
  "type": "FeatureCollection",
  "features": [
    {
      "type": "Feature",
      "properties": {
        "norad_id": 19071,
        "name": "OSCAR 32",
        "group": "nnss",
        "lat": 16.773670724210202,
        "lon": 16.667997586624498,
        "alt_km": 1241.86011161629,
        "timestamp": "2025-12-20T11:30:28.645826+00:00",
        "meta_object_name": "OSCAR 32",
        "meta_object_id": "1988-033B",
        "meta_epoch": "2025-12-20T00:43:02.305056",
        "meta_mean_motion": 13.27955116,
        "meta_eccentricity": 0.0188914,
        "meta_inclination": 90.321,
        "meta_ra_of_asc_node": 16.7508,
        "meta_arg_of_pericenter": 146.5881,
        "meta_mean_anomaly": 243.8277,
        "meta_ephemeris_type": 0,
        "meta_classification_type": "U",
        "meta_norad_cat_id": 19071,
        "meta_element_set_no": 999,
        "meta_rev_at_epoch": 82362,
        "meta_bstar": 0.00013088,
        "meta_mean_motion_dot": 7.5e-07,
        "meta_mean_motion_ddot": 0,
        "tle_line1": "1 19071U 88033B   25354.02988779  .00000075  00000+0  13088-3 0  9993",
        "tle_line2": "2 19071  90.3210  16.7508 0188914 146.5881 243.8277 13.27955116823620"
      },
      "geometry": {
        "type": "Point",
        "coordinates": [
          16.667997586624498,
          16.773670724210202
        ]
      }
    },
    {
      "type": "Feature",
      "properties": {
        "norad_id": 19223,
        "name": "NOVA 2",
        "group": "nnss",
        "lat": 76.50796598513665,
        "lon": 78.31753861383513,
        "alt_km": 1162.7909163156692,
        "timestamp": "2025-12-20T11:30:28.645836+00:00",
        "meta_object_name": "NOVA 2",
        "meta_object_id": "1988-052A",
        "meta_epoch": "2025-12-20T04:02:25.789056",
        "meta_mean_motion": 13.2293656,
        "meta_eccentricity": 0.0029956,
        "meta_inclination": 89.9869,
        "meta_ra_of_asc_node": 78.2633,
        "meta_arg_of_pericenter": 356.4251,
        "meta_mean_anomaly": 38.7794,
        "meta_ephemeris_type": 0,
        "meta_classification_type": "U",
        "meta_norad_cat_id": 19223,
        "meta_element_set_no": 999,
        "meta_rev_at_epoch": 81046,
        "meta_bstar": 8.7487e-05,
        "meta_mean_motion_dot": 4.5e-07,
        "meta_mean_motion_ddot": 0,
        "tle_line1": "1 19223U 88052A   25354.16835404  .00000045  00000+0  87487-4 0  9996",
        "tle_line2": "2 19223  89.9869  78.2633 0029956 356.4251  38.7794 13.22936560810468"
      },
      "geometry": {
        "type": "Point",
        "coordinates": [
          78.31753861383513,
          76.50796598513665
        ]
      }
    },
    {
      "type": "Feature",
      "properties": {
        "norad_id": 19419,
        "name": "OSCAR 25",
        "group": "nnss",
        "lat": -18.94882528978401,
        "lon": 20.28114656284567,
        "alt_km": 1137.050655988146,
        "timestamp": "2025-12-20T11:30:28.645864+00:00",
        "meta_object_name": "OSCAR 25",
        "meta_object_id": "1988-074A",
        "meta_epoch": "2025-12-20T02:58:00.786144",
        "meta_mean_motion": 13.42624651,
        "meta_eccentricity": 0.0094843,
        "meta_inclination": 90.0339,
        "meta_ra_of_asc_node": 20.2683,
        "meta_arg_of_pericenter": 224.454,
        "meta_mean_anomaly": 196.6413,
        "meta_ephemeris_type": 0,
        "meta_classification_type": "U",
        "meta_norad_cat_id": 19419,
        "meta_element_set_no": 999,
        "meta_rev_at_epoch": 82739,
        "meta_bstar": 0.00013432,
        "meta_mean_motion_dot": 8.7e-07,
        "meta_mean_motion_ddot": 0,
        "tle_line1": "1 19419U 88074A   25354.12362021  .00000087  00000+0  13432-3 0  9997",
        "tle_line2": "2 19419  90.0339  20.2683 0094843 224.4540 196.6413 13.42624651827393"
      },
      "geometry": {
        "type": "Point",
        "coordinates": [
          20.28114656284567,
          -18.94882528978401
        ]
      }
    },
    {
      "type": "Feature",
      "properties": {
        "norad_id": 19420,
        "name": "OSCAR 31",
        "group": "nnss",
        "lat": -43.07881309109891,
        "lon": -159.41246628651004,
        "alt_km": 1036.9391969543713,
        "timestamp": "2025-12-20T11:30:28.645886+00:00",
        "meta_object_name": "OSCAR 31",
        "meta_object_id": "1988-074B",
        "meta_epoch": "2025-12-20T01:35:37.066272",
        "meta_mean_motion": 13.4258585,
        "meta_eccentricity": 0.0093204,
        "meta_inclination": 90.0354,
        "meta_ra_of_asc_node": 20.6192,
        "meta_arg_of_pericenter": 218.7647,
        "meta_mean_anomaly": 168.678,
        "meta_ephemeris_type": 0,
        "meta_classification_type": "U",
        "meta_norad_cat_id": 19420,
        "meta_element_set_no": 999,
        "meta_rev_at_epoch": 82749,
        "meta_bstar": 0.00014637,
        "meta_mean_motion_dot": 9.4e-07,
        "meta_mean_motion_ddot": 0,
        "tle_line1": "1 19420U 88074B   25354.06640123  .00000094  00000+0  14637-3 0  9990",
        "tle_line2": "2 19420  90.0354  20.6192 0093204 218.7647 168.6780 13.42585850827499"
      },
      "geometry": {
        "type": "Point",
        "coordinates": [
          -159.41246628651004,
          -43.07881309109891
        ]
      }
    }
  ]
}